{"type": "FeatureCollection", "features": [ {"type": "Feature", "properties": {"norad_id": 35724, "name": "COSMOS 2251 DEB", "group": "cosmos-2251-debris", "lat": -61.61184099916776, "lon": 166.17691164918875, "alt_km": 736.0098440130641, "timestamp": "2025-12-06T16:45:43.118199+00:00", "meta": {"OBJECT_NAME": "COSMOS 2251 DEB", "OBJECT_ID": "1993-036AQV", "EPOCH": "2025-11-30T08:09:18.426240", "MEAN_MOTION": 14.58149733, "ECCENTRICITY": 0.00590888, "INCLINATION": 74.0317, "RA_OF_ASC_NODE": 326.2795, "ARG_OF_PERICENTER": 123.6188, "MEAN_ANOMALY": 237.0635, "EPHEMERIS_TYPE": 0, "CLASSIFICATION_TYPE": "U", "NORAD_CAT_ID": 35724, "ELEMENT_SET_NO": 999, "REV_AT_EPOCH": 87348, "BSTAR": 0.00024156118, "MEAN_MOTION_DOT": 1.11e-05, "MEAN_MOTION_DDOT": 0}, "tle": {"line1": "1 35724U 93036AQV 25334.33979660  .00001110  00000+0  24156-3 0  9995", "line2": "2 35724  74.0317 326.2795 0059088 123.6188 237.0635 14.58149733873489"}}, "geometry": {"type": "Point", "coordinates": [166.17691164918875, -61.61184099916776]}}, {"type": "Feature", "properties": {"norad_id": 35759, "name": "COSMOS 2251 DEB", "group": "cosmos-2251-debris", "lat": -40.619643297883286, "lon": -146.5431631769738, "alt_km": 636.6772382103054, "timestamp": "2025-12-06T16:45:43.118209+00:00", "meta": {"OBJECT_NAME": "COSMOS 2251 DEB", "OBJECT_ID": "1993-036ARD", "EPOCH": "2025-12-02T09:41:30.767712", "MEAN_MOTION": 14.648293, "ECCENTRICITY": 0.00766899, "INCLINATION": 74.0385, "RA_OF_ASC_NODE": 235.9215, "ARG_OF_PERICENTER": 356.5872, "MEAN_ANOMALY": 3.4761, "EPHEMERIS_TYPE": 0, "CLASSIFICATION_TYPE": "U", "NORAD_CAT_ID": 35759, "ELEMENT_SET_NO": 999, "REV_AT_EPOCH": 65984, "BSTAR": 0.00048578617, "MEAN_MOTION_DOT": 2.675e-05, "MEAN_MOTION_DDOT": 0}, "tle": {"line1": "1 35759U 93036ARD 25336.40382833  .00002675  00000+0  48579-3 0  9995", "line2": "2 35759  74.0385 235.9215 0076689 356.5872   3.4761 14.64829300659847"}}, "geometry": {"type": "Point", "coordinates": [-146.5431631769738, -40.619643297883286]}}, {"type": "Feature", "properties": {"norad_id": 35771, "name": "COSMOS 2251 DEB", "group": "cosmos-2251-debris", "lat": 11.696320862906143, "lon": -35.68346017889386, "alt_km": 908.6106953786839, "timestamp": "2025-12-06T16:45:43.118220+00:00", "meta": {"OBJECT_NAME": "COSMOS 2251 DEB", "OBJECT_ID": "1993-036ARR", "EPOCH": "2025-12-01T22:51:30.244896", "MEAN_MOTION": 14.12926683, "ECCENTRICITY": 0.02319351, "INCLINATION": 74.1552, "RA_OF_ASC_NODE": 329.2812, "ARG_OF_PERICENTER": 270.0606, "MEAN_ANOMALY": 87.396, "EPHEMERIS_TYPE": 0, "CLASSIFICATION_TYPE": "U", "NORAD_CAT_ID": 35771, "ELEMENT_SET_NO": 999, "REV_AT_EPOCH": 82708, "BSTAR": 0.0067662276, "MEAN_MOTION_DOT": 0.00016281, "MEAN_MOTION_DDOT": 0}, "tle": {"line1": "1 35771U 93036ARR 25335.95243339  .00016281  00000+0  67662-2 0  9996", "line2": "2 35771  74.1552 329.2812 0231935 270.0606  87.3960 14.12926683827080"}}, "geometry": {"type": "Point", "coordinates": [-35.68346017889386, 11.696320862906143]}}, {"type": "Feature", "properties": {"norad_id": 35773, "name": "COSMOS 2251 DEB", "group": "cosmos-2251-debris", "lat": -73.00978494806267, "lon": -117.76887387230681, "alt_km": 704.581106403667, "timestamp": "2025-12-06T16:45:43.118230+00:00", "meta": {"OBJECT_NAME": "COSMOS 2251 DEB", "OBJECT_ID": "1993-036ART", "EPOCH": "2025-12-06T00:46:49.137888", "MEAN_MOTION": 14.62011385, "ECCENTRICITY": 0.00458928, "INCLINATION": 74.0075, "RA_OF_ASC_NODE": 353.6844, "ARG_OF_PERICENTER": 155.6327, "MEAN_ANOMALY": 204.7024, "EPHEMERIS_TYPE": 0, "CLASSIFICATION_TYPE": "U", "NORAD_CAT_ID": 35773, "ELEMENT_SET_NO": 999, "REV_AT_EPOCH": 86741, "BSTAR": 0.00096508364, "MEAN_MOTION_DOT": 4.886e-05, "MEAN_MOTION_DDOT": 0}, "tle": {"line1": "1 35773U 93036ART 25340.03251317  .00004886  00000+0  96508-3 0  9998", "line2": "2 35773  74.0075 353.6844 0045892 155.6327 204.7024 14.62011385867416"}}, "geometry": {"type": "Point", "coordinates": [-117.76887387230681, -73.00978494806267]}}, {"type": "Feature", "properties": {"norad_id": 35777, "name": "COSMOS 2251 DEB", "group": "cosmos-2251-debris", "lat": 13.746389890796902, "lon": 148.3126592349176, "alt_km": 936.8061205268314, "timestamp": "2025-12-06T16:45:43.118240+00:00", "meta": {"OBJECT_NAME": "COSMOS 2251 DEB", "OBJECT_ID": "1993-036ARX", "EPOCH": "2025-12-02T10:40:29.464608", "MEAN_MOTION": 13.41287955, "ECCENTRICITY": 0.04528031, "INCLINATION": 73.7709, "RA_OF_ASC_NODE": 339.1914, "ARG_OF_PERICENTER": 235.501, "MEAN_ANOMALY": 282.7283, "EPHEMERIS_TYPE": 0, "CLASSIFICATION_TYPE": "U", "NORAD_CAT_ID": 35777, "ELEMENT_SET_NO": 999, "REV_AT_EPOCH": 79546, "BSTAR": 0.00081766672, "MEAN_MOTION_DOT": 8.07e-06, "MEAN_MOTION_DDOT": 0}, "tle": {"line1": "1 35777U 93036ARX 25336.44478547  .00000807  00000+0  81767-3 0  9998", "line2": "2 35777  73.7709 339.1914 0452803 235.5010 282.7283 13.41287955795460"}}, "geometry": {"type": "Point", "coordinates": [148.3126592349176, 13.746389890796902]}}, {"type": "Feature", "properties": {"norad_id": 35784, "name": "COSMOS 2251 DEB", "group": "cosmos-2251-debris", "lat": -0.2665261041236308, "lon": -78.87344877647477, "alt_km": 710.099775966697, "timestamp": "2025-12-06T16:45:43.118250+00:00", "meta": {"OBJECT_NAME": "COSMOS 2251 DEB", "OBJECT_ID": "1993-036ASE", "EPOCH": "2025-12-05T15:05:34.155456", "MEAN_MOTION": 14.50011306, "ECCENTRICITY": 0.00419479, "INCLINATION": 74.0372, "RA_OF_ASC_NODE": 103.0578, "ARG_OF_PERICENTER": 235.0897, "MEAN_ANOMALY": 124.6319, "EPHEMERIS_TYPE": 0, "CLASSIFICATION_TYPE": "U", "NORAD_CAT_ID": 35784, "ELEMENT_SET_NO": 999, "REV_AT_EPOCH": 65603, "BSTAR": 0.00065783499, "MEAN_MOTION_DOT": 2.549e-05, "MEAN_MOTION_DDOT": 0}, "tle": {"line1": "1 35784U 93036ASE 25339.62886754  .00002549  00000+0  65783-3 0  9997", "line2": "2 35784  74.0372 103.0578 0041947 235.0897 124.6319 14.50011306656032"}}, "geometry": {"type": "Point", "coordinates": [-78.87344877647477, -0.2665261041236308]}}, {"type": "Feature", "properties": {"norad_id": 35786, "name": "COSMOS 2251 DEB", "group": "cosmos-2251-debris", "lat": 66.21896113694152, "lon": -165.14999239902733, "alt_km": 661.789244304694, "timestamp": "2025-12-06T16:45:43.118260+00:00", "meta": {"OBJECT_NAME": "COSMOS 2251 DEB", "OBJECT_ID": "1993-036ASG", "EPOCH": "2025-12-05T22:15:20.968992", "MEAN_MOTION": 14.6610287, "ECCENTRICITY": 0.00346967, "INCLINATION": 74.0154, "RA_OF_ASC_NODE": 56.9159, "ARG_OF_PERICENTER": 188.1544, "MEAN_ANOMALY": 171.9065, "EPHEMERIS_TYPE": 0, "CLASSIFICATION_TYPE": "U", "NORAD_CAT_ID": 35786, "ELEMENT_SET_NO": 999, "REV_AT_EPOCH": 73308, "BSTAR": 0.0018872115, "MEAN_MOTION_DOT": 0.00010443, "MEAN_MOTION_DDOT": 0}, "tle": {"line1": "1 35786U 93036ASG 25339.92732603  .00010443  00000+0  18872-2 0  9993", "line2": "2 35786  74.0154  56.9159 0034696 188.1544 171.9065 14.66102870733081"}}, "geometry": {"type": "Point", "coordinates": [-165.14999239902733, 66.21896113694152]}}, {"type": "Feature", "properties": {"norad_id": 35789, "name": "COSMOS 2251 DEB", "group": "cosmos-2251-debris", "lat": 72.32807515321888, "lon": 51.528762099498145, "alt_km": 748.081934084913, "timestamp": "2025-12-06T16:45:43.118280+00:00", "meta": {"OBJECT_NAME": "COSMOS 2251 DEB", "OBJECT_ID": "1993-036ASK", "EPOCH": "2025-12-04T04:07:13.820736", "MEAN_MOTION": 14.3597471, "ECCENTRICITY": 0.00471528, "INCLINATION": 74.0391, "RA_OF_ASC_NODE": 300.0971, "ARG_OF_PERICENTER": 41.8218, "MEAN_ANOMALY": 318.6522, "EPHEMERIS_TYPE": 0, "CLASSIFICATION_TYPE": "U", "NORAD_CAT_ID": 35789, "ELEMENT_SET_NO": 999, "REV_AT_EPOCH": 61104, "BSTAR": 0.00025299607, "MEAN_MOTION_DOT": 7.18e-06, "MEAN_MOTION_DDOT": 0}, "tle": {"line1": "1 35789U 93036ASK 25338.17168774  .00000718  00000+0  25300-3 0  9993", "line2": "2 35789  74.0391 300.0971 0047152  41.8218 318.6522 14.35974710611041"}}, "geometry": {"type": "Point", "coordinates": [51.528762099498145, 72.32807515321888]}}, {"type": "Feature", "properties": {"norad_id": 35793, "name": "COSMOS 2251 DEB", "group": "cosmos-2251-debris", "lat": -52.30927081273198, "lon": 50.31672482623536, "alt_km": 642.8614462163869, "timestamp": "2025-12-06T16:45:43.118292+00:00", "meta": {"OBJECT_NAME": "COSMOS 2251 DEB", "OBJECT_ID": "1993-036ASP", "EPOCH": "2025-12-05T23:56:23.385696", "MEAN_MOTION": 14.78407319, "ECCENTRICITY": 0.00030236, "INCLINATION": 74.0418, "RA_OF_ASC_NODE": 73.4304, "ARG_OF_PERICENTER": 147.3638, "MEAN_ANOMALY": 28.3256, "EPHEMERIS_TYPE": 0, "CLASSIFICATION_TYPE": "U", "NORAD_CAT_ID": 35793, "ELEMENT_SET_NO": 999, "REV_AT_EPOCH": 65697, "BSTAR": 0.0029643636, "MEAN_MOTION_DOT": 0.00021638, "MEAN_MOTION_DDOT": 0}, "tle": {"line1": "1 35793U 93036ASP 25339.99749289  .00021638  00000+0  29644-2 0  9993", "line2": "2 35793  74.0418  73.4304 0003023 147.3638  28.3256 14.78407319656977"}}, "geometry": {"type": "Point", "coordinates": [50.31672482623536, -52.30927081273198]}}, {"type": "Feature", "properties": {"norad_id": 35824, "name": "COSMOS 2251 DEB", "group": "cosmos-2251-debris", "lat": 54.0022898639443, "lon": -144.33735835864974, "alt_km": 760.992598169184, "timestamp": "2025-12-06T16:45:43.118302+00:00", "meta": {"OBJECT_NAME": "COSMOS 2251 DEB", "OBJECT_ID": "1993-036ASW", "EPOCH": "2025-12-05T22:52:58.587168", "MEAN_MOTION": 13.88379275, "ECCENTRICITY": 0.02497807, "INCLINATION": 73.8463, "RA_OF_ASC_NODE": 60.4551, "ARG_OF_PERICENTER": 147.799, "MEAN_ANOMALY": 213.8673, "EPHEMERIS_TYPE": 0, "CLASSIFICATION_TYPE": "U", "NORAD_CAT_ID": 35824, "ELEMENT_SET_NO": 999, "REV_AT_EPOCH": 84133, "BSTAR": 0.002389201, "MEAN_MOTION_DOT": 3.65e-05, "MEAN_MOTION_DDOT": 0}, "tle": {"line1": "1 35824U 93036ASW 25339.95345587  .00003650  00000+0  23892-2 0  9990", "line2": "2 35824  73.8463  60.4551 0249780 147.7990 213.8673 13.88379275841335"}}, "geometry": {"type": "Point", "coordinates": [-144.33735835864974, 54.0022898639443]}}]}